STARLINK-31505          
1 59237U 24049G   26157.86472498  .00003028  00000+0  11946-3 0  9990
2 59237  43.0053 359.9857 0002447 286.1966  73.8616 15.27598722126046
STARLINK-31494          
1 59238U 24049H   26157.84290085  .00001056  00000+0  47905-4 0  9993
2 59238  42.9992 359.8161 0001044 290.5308  69.5432 15.27580455126047
STARLINK-31303          
1 59239U 24049J   26157.76482692 -.00001791  00000+0 -55588-4 0  9996
2 59239  43.0014 349.6432 0001458 266.4247  93.6438 15.27569700126152
STARLINK-31408          
1 59240U 24049K   26157.68657489  .00002798  00000+0  11121-3 0  9997
2 59240  43.0052   1.2206 0001455 266.3483  93.7202 15.27565896126011
STARLINK-31427          
1 59241U 24049L   26157.69041571  .00004265  00000+0  16435-3 0  9992
2 59241  43.0045   1.2195 0001401 268.0459  92.0233 15.27595045126019
STARLINK-31423          
1 59242U 24049M   26157.68400257 -.00001156  00000+0 -32472-4 0  9990
2 59242  43.0052   1.1980 0001105 290.2622  69.8111 15.27589138126012
STARLINK-31433          
1 59243U 24049N   26157.85444602  .00002617  00000+0  10455-3 0  9999
2 59243  43.0074 359.8973 0001345 285.1703  74.9000 15.27596100126045
STARLINK-31285          
1 59244U 24049P   26157.83902830  .00002631  00000+0  10506-3 0  9993
2 59244  43.0027 359.7792 0001477 293.0268  67.0428 15.27592793126032
STARLINK-31284          
1 59246U 24049R   26157.85059962  .00002511  00000+0  10078-3 0  9997
2 59246  43.0056 359.8680 0002067 272.0173  88.0443 15.27577961126031
STARLINK-31424          
1 59247U 24049S   26157.86006171  .00002192  00000+0  89101-4 0  9992
2 59247  43.0029 356.4750 0000942 260.2971  99.7774 15.27595401126077
STARLINK-31405          
1 59248U 24049T   26157.87246644 -.00002608  00000+0 -85352-4 0  9993
2 59248  43.0041   0.0308 0001753 277.5971  82.4682 15.27550136126034
STARLINK-31426          
1 59249U 24049U   26157.68014619 -.00001573  00000+0 -47636-4 0  9991
2 59249  43.0066   1.1617 0001345 288.2721  71.7985 15.27591507126007
STARLINK-31407          
1 59250U 24049V   26157.79679136  .00003700  00000+0  14391-3 0  9999
2 59250  43.0058 349.0762 0001908 264.0013  96.0621 15.27585966126151
STARLINK-31393          
1 59252U 24049X   26157.80755478  .00000595  00000+0  31176-4 0  9997
2 59252  43.0048 345.6775 0003253 276.6779  83.3703 15.27582258126208
STARLINK-31425          
1 59253U 24049Y   26157.84672304  .00002570  00000+0  10282-3 0  9997
2 59253  43.0001 359.8379 0001251 262.0360  98.0350 15.27598357126035
STARLINK-31659          
1 59254U 24050A   26157.62850930  .00000067  00000+0  13129-4 0  9992
2 59254  53.1600 124.4750 0001378  92.0931 268.0230 15.34387192125369
STARLINK-31629          
1 59255U 24050B   26157.61978579  .00000002  00000+0  12204-4 0  9994
2 59255  53.1594 127.9611 0001375  87.8050 272.3109 15.30194881124164
STARLINK-31652          
1 59256U 24050C   26157.21522670  .00000828  00000+0  40059-4 0  9993
2 59256  53.1594 129.7064 0001160  94.1866 265.9267 15.30203476124103
STARLINK-31637          
1 59258U 24050E   26157.20889844  .00000208  00000+0  19140-4 0  9992
2 59258  53.1589 129.6660 0001214  92.0121 268.1019 15.30198430124104
STARLINK-31506          
1 59259U 24050F   26157.61661501  .00000407  00000+0  25868-4 0  9991
2 59259  53.1585 127.9430 0000959  84.4904 275.6206 15.30200472124163
STARLINK-31639          
1 59261U 24050H   26157.21207762  .00001463  00000+0  61529-4 0  9992
2 59261  53.1595 129.6847 0000966  88.5173 271.5939 15.30195435124103
STARLINK-31598          
1 59263U 24050K   26157.65249719  .00001957  00000+0  78226-4 0  9990
2 59263  53.1611 128.1414 0001533 102.4924 257.6249 15.30187125124161
STARLINK-31645          
1 59264U 24050L   26157.62717326  .00031315  00000+0  10647-2 0  9994
2 59264  53.1581 128.0056 0001784  84.2294 275.8910 15.30206813124167
STARLINK-31646          
1 59265U 24050M   26157.63350313  .00000222  00000+0  19637-4 0  9998
2 59265  53.1589 128.0445 0001183  94.5457 265.5679 15.30191295124161
STARLINK-31648          
1 59266U 24050N   26157.21840106  .00000449  00000+0  27282-4 0  9993
2 59266  53.1600 129.7235 0001103  85.6992 274.4135 15.30209594124100
STARLINK-31579          
1 59267U 24050P   26157.62400934  .00000036  00000+0  13360-4 0  9994
2 59267  53.1600 127.9853 0001381  77.7210 282.3945 15.30190685124163
STARLINK-31627          
1 59268U 24050Q   26157.64616651  .00034867  00000+0  11834-2 0  9993
2 59268  53.1585 128.1163 0001441 100.9595 259.1568 15.30212178124160
STARLINK-31609          
1 59269U 24050R   26157.17313154  .00000520  00000+0  29694-4 0  9998
2 59269  53.1592 130.1505 0001307  88.7933 271.3218 15.30193087124099
STARLINK-31616          
1 59270U 24050S   26157.63667129  .00002225  00000+0  87273-4 0  9996
2 59270  53.1595 128.0619 0001452  93.2957 266.8210 15.30189100124164
STARLINK-31630          
1 59271U 24050T   26157.16406551  .00001455  00000+0  54193-4 0  9994
2 59271  53.1602 116.5908 0001541 105.2527 254.8646 15.34401964124285
