OBJECT_NAME,OBJECT_ID,EPOCH,MEAN_MOTION,ECCENTRICITY,INCLINATION,RA_OF_ASC_NODE,ARG_OF_PERICENTER,MEAN_ANOMALY,EPHEMERIS_TYPE,CLASSIFICATION_TYPE,NORAD_CAT_ID,ELEMENT_SET_NO,REV_AT_EPOCH,BSTAR,MEAN_MOTION_DOT,MEAN_MOTION_DDOT
STARLINK-31505,2024-049G,2026-06-06T20:45:12.238272,15.27598722,.00024473,43.0053,359.9857,286.1966,73.8616,0,U,59237,999,12604,.11946279E-3,.3028E-4,0
STARLINK-31494,2024-049H,2026-06-06T20:13:46.633440,15.27580455,.00010448,42.9992,359.8161,290.5308,69.5432,0,U,59238,999,12604,.47904984E-4,.1056E-4,0
STARLINK-31303,2024-049J,2026-06-06T18:21:21.045888,15.27569700,.0001458,43.0014,349.6432,266.4247,93.6438,0,U,59239,999,12615,-.55587958E-4,-.1791E-4,0
STARLINK-31408,2024-049K,2026-06-06T16:28:40.070496,15.27565896,.00014556,43.0052,1.2206,266.3483,93.7202,0,U,59240,999,12601,.11121111E-3,.2798E-4,0
STARLINK-31427,2024-049L,2026-06-06T16:34:11.917344,15.27595045,.0001401,43.0045,1.2195,268.0459,92.0233,0,U,59241,999,12601,.16435212E-3,.4265E-4,0
STARLINK-31423,2024-049M,2026-06-06T16:24:57.822048,15.27589138,.0001105,43.0052,1.1980,290.2622,69.8111,0,U,59242,999,12601,-.32471675E-4,-.1156E-4,0
STARLINK-31433,2024-049N,2026-06-06T20:30:24.136128,15.27596100,.00013459,43.0074,359.8973,285.1703,74.9000,0,U,59243,999,12604,.10454705E-3,.2617E-4,0
STARLINK-31285,2024-049P,2026-06-06T20:08:12.045120,15.27592793,.00014777,43.0027,359.7792,293.0268,67.0428,0,U,59244,999,12603,.10505843E-3,.2631E-4,0
STARLINK-31284,2024-049R,2026-06-06T20:24:51.807168,15.27577961,.0002067,43.0056,359.8680,272.0173,88.0443,0,U,59246,999,12603,.10077509E-3,.2511E-4,0
STARLINK-31424,2024-049S,2026-06-06T20:38:29.331744,15.27595401,.00009425,43.0029,356.4750,260.2971,99.7774,0,U,59247,999,12607,.89101171E-4,.2192E-4,0
STARLINK-31405,2024-049T,2026-06-06T20:56:21.100416,15.27550136,.00017539,43.0041,0.0308,277.5971,82.4682,0,U,59248,999,12603,-.85352272E-4,-.2608E-4,0
STARLINK-31426,2024-049U,2026-06-06T16:19:24.630816,15.27591507,.00013454,43.0066,1.1617,288.2721,71.7985,0,U,59249,999,12600,-.47635986E-4,-.1573E-4,0
STARLINK-31407,2024-049V,2026-06-06T19:07:22.773504,15.27585966,.00019089,43.0058,349.0762,264.0013,96.0621,0,U,59250,999,12615,.14391031E-3,.37E-4,0
STARLINK-31393,2024-049X,2026-06-06T19:22:52.732992,15.27582258,.00032538,43.0048,345.6775,276.6779,83.3703,0,U,59252,999,12620,.31176036E-4,.595E-5,0
STARLINK-31425,2024-049Y,2026-06-06T20:19:16.870656,15.27598357,.00012514,43.0001,359.8379,262.0360,98.0350,0,U,59253,999,12603,.10282067E-3,.257E-4,0
STARLINK-31659,2024-050A,2026-06-06T15:05:03.203520,15.34387192,.00013788,53.1600,124.4750,92.0931,268.0230,0,U,59254,999,12536,.13128883E-4,.67E-6,0
STARLINK-31629,2024-050B,2026-06-06T14:52:29.492256,15.30194881,.00013755,53.1594,127.9611,87.8050,272.3109,0,U,59255,999,12416,.12203568E-4,.2E-7,0
STARLINK-31652,2024-050C,2026-06-06T05:09:55.586880,15.30203476,.00011602,53.1594,129.7064,94.1866,265.9267,0,U,59256,999,12410,.40058503E-4,.828E-5,0
STARLINK-31637,2024-050E,2026-06-06T05:00:48.825216,15.30198430,.00012143,53.1589,129.6660,92.0121,268.1019,0,U,59258,999,12410,.19140279E-4,.208E-5,0
STARLINK-31506,2024-050F,2026-06-06T14:47:55.536864,15.30200472,.00009597,53.1585,127.9430,84.4904,275.6206,0,U,59259,999,12416,.25868456E-4,.407E-5,0
STARLINK-31639,2024-050H,2026-06-06T05:05:23.506368,15.30195435,.00009665,53.1595,129.6847,88.5173,271.5939,0,U,59261,999,12410,.61529061E-4,.1463E-4,0
STARLINK-31598,2024-050K,2026-06-06T15:39:35.757216,15.30187125,.00015335,53.1611,128.1414,102.4924,257.6249,0,U,59263,999,12416,.78225919E-4,.1957E-4,0
STARLINK-31645,2024-050L,2026-06-06T15:03:07.769664,15.30206813,.00017845,53.1581,128.0056,84.2294,275.8910,0,U,59264,999,12416,.10647153E-2,.31315E-3,0
STARLINK-31646,2024-050M,2026-06-06T15:12:14.670432,15.30191295,.00011837,53.1589,128.0445,94.5457,265.5679,0,U,59265,999,12416,.19636891E-4,.222E-5,0
STARLINK-31648,2024-050N,2026-06-06T05:14:29.851584,15.30209594,.00011034,53.1600,129.7235,85.6992,274.4135,0,U,59266,999,12410,.2728162E-4,.449E-5,0
STARLINK-31579,2024-050P,2026-06-06T14:58:34.406976,15.30190685,.00013818,53.1600,127.9853,77.7210,282.3945,0,U,59267,999,12416,.13360257E-4,.36E-6,0
STARLINK-31627,2024-050Q,2026-06-06T15:30:28.786464,15.30212178,.0001441,53.1585,128.1163,100.9595,259.1568,0,U,59268,999,12416,.11833641E-2,.34867E-3,0
STARLINK-31609,2024-050R,2026-06-06T04:09:18.565056,15.30193087,.00013071,53.1592,130.1505,88.7933,271.3218,0,U,59269,999,12409,.2969365E-4,.52E-5,0
STARLINK-31616,2024-050S,2026-06-06T15:16:48.399456,15.30189100,.00014529,53.1595,128.0619,93.2957,266.8210,0,U,59270,999,12416,.87273413E-4,.2225E-4,0
STARLINK-31630,2024-050T,2026-06-06T03:56:15.260064,15.34401964,.0001541,53.1602,116.5908,105.2527,254.8646,0,U,59271,999,12428,.54193E-4,.1455E-4,0
